OBJECT_NAME,OBJECT_ID,EPOCH,MEAN_MOTION,ECCENTRICITY,INCLINATION,RA_OF_ASC_NODE,ARG_OF_PERICENTER,MEAN_ANOMALY,EPHEMERIS_TYPE,CLASSIFICATION_TYPE,NORAD_CAT_ID,ELEMENT_SET_NO,REV_AT_EPOCH,BSTAR,MEAN_MOTION_DOT,MEAN_MOTION_DDOT
STARLINK-1152,2020-006BE,2026-05-21T05:10:49.808064,15.46684152,.000352,53.0372,222.1155,11.0509,349.0574,0,U,45096,999,34878,.6861E-3,.34549E-3,0
STARLINK-1184,2020-006BG,2026-05-21T20:09:05.319360,15.13492785,.00030622,53.0516,274.1648,1.1301,358.9697,0,U,45098,999,34810,.10519606E-2,.18798E-3,0
STARLINK-1193,2020-006BJ,2026-05-22T06:04:56.199936,15.66146579,.00036149,53.0462,231.2744,274.1756,85.8846,0,U,45100,999,34874,.35953596E-3,.37279E-3,0
ONEWEB-0013,2020-008A,2026-05-22T04:34:05.006208,13.09458945,.00029035,87.8535,58.0672,76.4033,283.7417,0,U,45131,999,30266,-.10721368E-2,-.357E-5,0
ONEWEB-0017,2020-008B,2026-05-22T02:44:55.151808,13.10370220,.00016275,87.8848,41.4588,76.6205,283.5103,0,U,45132,999,30453,-.35398466E-3,-.111E-5,0
ONEWEB-0020,2020-008C,2026-05-22T02:01:54.277536,13.10376020,.00019001,87.8862,41.4616,79.2066,280.9276,0,U,45133,999,30492,.18004999E-2,.641E-5,0
ONEWEB-0021,2020-008D,2026-05-22T04:13:22.707264,13.10371794,.0001904,87.8850,41.4611,77.0404,283.0936,0,U,45134,999,30524,.15847593E-2,.566E-5,0
ONEWEB-0023,2020-008F,2026-05-22T02:38:57.020352,13.10369792,.00019885,87.8852,41.4548,81.9524,278.1829,0,U,45136,999,30466,.41797371E-3,.159E-5,0
ONEWEB-0024,2020-008G,2026-05-22T01:59:41.432352,13.10377350,.00018682,87.8864,41.4514,78.8026,281.3311,0,U,45137,999,30482,.39378238E-3,.15E-5,0
ONEWEB-0025,2020-008H,2026-05-22T03:49:16.150944,13.10376902,.0001746,87.8869,41.4252,95.7541,264.3785,0,U,45138,999,30516,.11510986E-2,.415E-5,0
ONEWEB-0026,2020-008J,2026-05-22T03:23:33.777888,13.11413643,.00016422,87.8915,26.2501,82.0417,278.0897,0,U,45139,999,30769,.71525091E-3,.266E-5,0
ONEWEB-0028,2020-008K,2026-05-22T02:37:39.421920,13.10854213,.0002374,87.8908,26.2624,78.6895,281.4500,0,U,45140,999,30520,.70745691E-4,.38E-6,0
ONEWEB-0032,2020-008L,2026-05-22T02:47:30.590592,13.10370626,.00023488,87.8850,41.4600,80.5201,279.6192,0,U,45141,999,30488,-.49072678E-3,-.159E-5,0
ONEWEB-0033,2020-008M,2026-05-22T04:01:25.405824,13.10374838,.00013643,87.8850,41.4575,75.4438,284.6841,0,U,45142,999,30480,.1758369E-2,.627E-5,0
ONEWEB-0035,2020-008N,2026-05-22T02:41:06.099360,13.10883834,.00017279,87.8846,41.4617,78.6941,281.4381,0,U,45143,999,30452,.21235763E-4,.2E-6,0
ONEWEB-0036,2020-008P,2026-05-22T03:40:23.262528,13.09824924,.00020552,87.8875,41.4562,81.4074,278.7286,0,U,45144,999,30495,.45897148E-3,.172E-5,0
ONEWEB-0038,2020-008Q,2026-05-22T01:48:31.698432,13.11413671,.00023881,87.8923,26.2682,36.1633,323.9656,0,U,45145,999,30690,-.71148986E-3,-.239E-5,0
ONEWEB-0039,2020-008R,2026-05-22T04:06:12.864672,13.10372938,.00023298,87.8855,41.4464,76.7185,283.4202,0,U,45146,999,30475,.19844268E-2,.705E-5,0
ONEWEB-0040,2020-008S,2026-05-22T02:06:41.349312,13.10374914,.00018491,87.8854,41.4744,75.2462,284.8870,0,U,45147,999,30444,.18062611E-2,.643E-5,0
ONEWEB-0043,2020-008U,2026-05-22T03:59:02.514912,13.10381834,.00024773,87.8855,41.4454,78.8047,281.3359,0,U,45149,999,30477,.18315398E-2,.652E-5,0
ONEWEB-0044,2020-008V,2026-05-22T02:49:41.989440,13.10370552,.00020217,87.8857,41.4542,77.1469,282.9885,0,U,45150,999,30506,-.79418031E-3,-.265E-5,0
ONEWEB-0045,2020-008W,2026-05-22T03:30:52.936128,13.11413604,.00019121,87.8916,26.2381,78.6986,281.4357,0,U,45151,999,30699,.92969403E-4,.46E-6,0
ONEWEB-0047,2020-008X,2026-05-22T02:40:05.561472,13.10395434,.00017842,87.8849,41.4555,74.4156,285.7168,0,U,45152,999,30478,.83836533E-2,.2941E-4,0
ONEWEB-0048,2020-008Y,2026-05-22T02:32:58.799040,13.10370654,.00018167,87.8850,41.4794,78.3979,281.7352,0,U,45153,999,30439,.10676313E-2,.385E-5,0
ONEWEB-0049,2020-008Z,2026-05-22T04:27:31.139712,13.10370064,.00020606,87.8848,41.4523,90.6655,269.4708,0,U,45154,999,30462,.56300083E-3,.209E-5,0
ONEWEB-0051,2020-008AA,2026-05-22T03:28:26.990112,13.11413654,.00018749,87.8908,26.2479,82.8614,277.2727,0,U,45155,999,30767,.1192824E-3,.55E-6,0
ONEWEB-0052,2020-008AB,2026-05-22T03:06:37.483200,13.10372901,.00021191,87.8858,41.4482,90.0727,270.0643,0,U,45156,999,30452,-.17894699E-2,-.612E-5,0
ONEWEB-0053,2020-008AC,2026-05-22T03:54:15.255648,13.10375282,.00023701,87.8852,41.4651,82.6935,277.4462,0,U,45157,999,30450,.16672312E-2,.595E-5,0
ONEWEB-0054,2020-008AD,2026-05-22T02:54:28.479744,13.10370980,.00018579,87.8860,41.4538,81.9929,278.1409,0,U,45158,999,30461,-.12666221E-2,-.429E-5,0
ONEWEB-0056,2020-008AE,2026-05-22T04:03:44.364672,13.10606147,.00018986,87.8856,41.4383,87.7416,272.3929,0,U,45159,999,30477,-.73067193E-1,-.2551E-3,0
