STARLINK-1152           
1 45096U 20006BE  26141.21585426  .00034549  00000+0  68610-3 0  9997
2 45096  53.0372 222.1155 0003520  11.0509 349.0574 15.46684152348784
STARLINK-1184           
1 45098U 20006BG  26141.83964490  .00018798  00000+0  10520-2 0  9993
2 45098  53.0516 274.1648 0003062   1.1301 358.9697 15.13492785348105
STARLINK-1193           
1 45100U 20006BJ  26142.25342824  .00037279  00000+0  35954-3 0  9999
2 45100  53.0462 231.2744 0003614 274.1756  85.8846 15.66146579348746
ONEWEB-0013             
1 45131U 20008A   26142.19033572 -.00000357  00000+0 -10721-2 0  9998
2 45131  87.8535  58.0672 0002903  76.4033 283.7417 13.09458945302664
ONEWEB-0017             
1 45132U 20008B   26142.11452722 -.00000111  00000+0 -35398-3 0  9999
2 45132  87.8848  41.4588 0001627  76.6205 283.5103 13.10370220304538
ONEWEB-0020             
1 45133U 20008C   26142.08465599  .00000641  00000+0  18005-2 0  9993
2 45133  87.8862  41.4616 0001900  79.2066 280.9276 13.10376020304924
ONEWEB-0021             
1 45134U 20008D   26142.17595726  .00000566  00000+0  15848-2 0  9998
2 45134  87.8850  41.4611 0001904  77.0404 283.0936 13.10371794305249
ONEWEB-0023             
1 45136U 20008F   26142.11038218  .00000159  00000+0  41797-3 0  9993
2 45136  87.8852  41.4548 0001988  81.9524 278.1829 13.10369792304667
ONEWEB-0024             
1 45137U 20008G   26142.08311843  .00000150  00000+0  39378-3 0  9991
2 45137  87.8864  41.4514 0001868  78.8026 281.3311 13.10377350304822
ONEWEB-0025             
1 45138U 20008H   26142.15921471  .00000415  00000+0  11511-2 0  9996
2 45138  87.8869  41.4252 0001746  95.7541 264.3785 13.10376902305168
ONEWEB-0026             
1 45139U 20008J   26142.14136317  .00000266  00000+0  71525-3 0  9999
2 45139  87.8915  26.2501 0001642  82.0417 278.0897 13.11413643307696
ONEWEB-0028             
1 45140U 20008K   26142.10948405  .00000038  00000+0  70746-4 0  9998
2 45140  87.8908  26.2624 0002374  78.6895 281.4500 13.10854213305205
ONEWEB-0032             
1 45141U 20008L   26142.11632628 -.00000159  00000+0 -49073-3 0  9991
2 45141  87.8850  41.4600 0002348  80.5201 279.6192 13.10370626304889
ONEWEB-0033             
1 45142U 20008M   26142.16765516  .00000627  00000+0  17584-2 0  9999
2 45142  87.8850  41.4575 0001364  75.4438 284.6841 13.10374838304801
ONEWEB-0035             
1 45143U 20008N   26142.11187615  .00000020  00000+0  21236-4 0  9991
2 45143  87.8846  41.4617 0001727  78.6941 281.4381 13.10883834304525
ONEWEB-0036             
1 45144U 20008P   26142.15304702  .00000172  00000+0  45897-3 0  9990
2 45144  87.8875  41.4562 0002055  81.4074 278.7286 13.09824924304954
ONEWEB-0038             
1 45145U 20008Q   26142.07536688 -.00000239  00000+0 -71149-3 0  9997
2 45145  87.8923  26.2682 0002388  36.1633 323.9656 13.11413671306907
ONEWEB-0039             
1 45146U 20008R   26142.17098223  .00000705  00000+0  19844-2 0  9996
2 45146  87.8855  41.4464 0002329  76.7185 283.4202 13.10372938304753
ONEWEB-0040             
1 45147U 20008S   26142.08797858  .00000643  00000+0  18063-2 0  9990
2 45147  87.8854  41.4744 0001849  75.2462 284.8870 13.10374914304440
ONEWEB-0043             
1 45149U 20008U   26142.16600133  .00000652  00000+0  18315-2 0  9990
2 45149  87.8855  41.4454 0002477  78.8047 281.3359 13.10381834304776
ONEWEB-0044             
1 45150U 20008V   26142.11784710 -.00000265  00000+0 -79418-3 0  9995
2 45150  87.8857  41.4542 0002021  77.1469 282.9885 13.10370552305062
ONEWEB-0045             
1 45151U 20008W   26142.14644602  .00000046  00000+0  92969-4 0  9996
2 45151  87.8916  26.2381 0001912  78.6986 281.4357 13.11413604306997
ONEWEB-0047             
1 45152U 20008X   26142.11117548  .00002941  00000+0  83837-2 0  9996
2 45152  87.8849  41.4555 0001784  74.4156 285.7168 13.10395434304786
ONEWEB-0048             
1 45153U 20008Y   26142.10623610  .00000385  00000+0  10676-2 0  9999
2 45153  87.8850  41.4794 0001816  78.3979 281.7352 13.10370654304391
ONEWEB-0049             
1 45154U 20008Z   26142.18577708  .00000209  00000+0  56300-3 0  9994
2 45154  87.8848  41.4523 0002060  90.6655 269.4708 13.10370064304628
ONEWEB-0051             
1 45155U 20008AA  26142.14475683  .00000055  00000+0  11928-3 0  9996
2 45155  87.8908  26.2479 0001874  82.8614 277.2727 13.11413654307677
ONEWEB-0052             
1 45156U 20008AB  26142.12960050 -.00000612  00000+0 -17895-2 0  9991
2 45156  87.8858  41.4482 0002119  90.0727 270.0643 13.10372901304521
ONEWEB-0053             
1 45157U 20008AC  26142.16267657  .00000595  00000+0  16672-2 0  9999
2 45157  87.8852  41.4651 0002370  82.6935 277.4462 13.10375282304504
ONEWEB-0054             
1 45158U 20008AD  26142.12116296 -.00000429  00000+0 -12666-2 0  9995
2 45158  87.8860  41.4538 0001857  81.9929 278.1409 13.10370980304613
ONEWEB-0056             
1 45159U 20008AE  26142.16926348 -.00025510  00000+0 -73067-1 0  9996
2 45159  87.8856  41.4383 0001898  87.7416 272.3929 13.10606147304774
